[{"OBJECT_NAME":"TIANHUI 6A","OBJECT_ID":"2023-030A","EPOCH":"2026-03-09T23:27:00.729792","MEAN_MOTION":14.01332353,"ECCENTRICITY":0.00012385,"INCLINATION":99.0142,"RA_OF_ASC_NODE":78.4448,"ARG_OF_PERICENTER":173.8097,"MEAN_ANOMALY":186.3084,"EPHEMERIS_TYPE":0,"CLASSIFICATION_TYPE":"U","NORAD_CAT_ID":55836,"ELEMENT_SET_NO":999,"REV_AT_EPOCH":15350,"BSTAR":-9.2358714e-5,"MEAN_MOTION_DOT":-1.83e-6,"MEAN_MOTION_DDOT":0},{"OBJECT_NAME":"COSMOS 1176","OBJECT_ID":"1980-034A","EPOCH":"2026-03-09T22:16:44.853024","MEAN_MOTION":13.9313964,"ECCENTRICITY":0.00592412,"INCLINATION":64.8276,"RA_OF_ASC_NODE":275.5406,"ARG_OF_PERICENTER":299.1501,"MEAN_ANOMALY":60.3641,"EPHEMERIS_TYPE":0,"CLASSIFICATION_TYPE":"U","NORAD_CAT_ID":11788,"ELEMENT_SET_NO":999,"REV_AT_EPOCH":32799,"BSTAR":3.6911659e-5,"MEAN_MOTION_DOT":-4.3e-7,"MEAN_MOTION_DDOT":0}]
